{
  "norad_id": 61908,
  "name": "2024-205Q",
  "history": [
    {
      "epoch": "2026-03-26T08:27:28.381248",
      "apogee_km": 523.5804809705987,
      "perigee_km": 507.6716061197485,
      "latitude_deg": -63.60185296089627,
      "longitude_deg": -147.36846527992748,
      "semi_major_axis_km": 6893.763043545173,
      "eccentricity": 0.00115386,
      "inclination_deg": 97.418,
      "raan_deg": 159.6416,
      "arg_perigee_deg": 352.9607,
      "mean_anomaly_deg": 7.1463,
      "mean_motion_rev_day": 15.16764777
    }
  ]
}